[{"OBJECT_NAME":"ICEYE-X26","OBJECT_ID":"2023-084AF","EPOCH":"2026-03-09T22:36:43.632288","MEAN_MOTION":15.73279775,"ECCENTRICITY":9.181e-5,"INCLINATION":97.5771,"RA_OF_ASC_NODE":224.5701,"ARG_OF_PERICENTER":250.447,"MEAN_ANOMALY":109.6694,"EPHEMERIS_TYPE":0,"CLASSIFICATION_TYPE":"U","NORAD_CAT_ID":56961,"ELEMENT_SET_NO":999,"REV_AT_EPOCH":15354,"BSTAR":0.00052391916,"MEAN_MOTION_DOT":0.00072488,"MEAN_MOTION_DDOT":0},{"OBJECT_NAME":"STARLINK-11623 [DTC]","OBJECT_ID":"2025-053M","EPOCH":"2026-03-09T13:11:06.342144","MEAN_MOTION":15.708578,"ECCENTRICITY":9.295e-5,"INCLINATION":42.9998,"RA_OF_ASC_NODE":113.4145,"ARG_OF_PERICENTER":263.0312,"MEAN_ANOMALY":97.045,"EPHEMERIS_TYPE":0,"CLASSIFICATION_TYPE":"U","NORAD_CAT_ID":63276,"ELEMENT_SET_NO":999,"REV_AT_EPOCH":5763,"BSTAR":0.0014074162,"MEAN_MOTION_DOT":0.0018434,"MEAN_MOTION_DDOT":0}]
